NORAD_CAT_ID,OBJECT_NAME,OBJECT_TYPE,EPOCH,MEAN_MOTION,ECCENTRICITY,INCLINATION,RA_OF_ASC_NODE,ARG_OF_PERICENTER,MEAN_ANOMALY,BSTAR,MEAN_MOTION_DOT,MEAN_MOTION_DDOT,TLE_LINE0,TLE_LINE1,TLE_LINE2,SEMIMAJOR_AXIS,PERIOD,APOGEE,PERIGEE,DECAYED
51962.0,STARLINK-3697,PAYLOAD,2023-08-27 02:38:36,15.08026456,0.0001466,53.0523,223.0694,95.2075,264.9082,-3.9968e-05,-9.08e-06,0.0,0 STARLINK-3697,1 51962U 22025G   23239.11014964 -.00000908  00000-0 -39968-4 0  9997,2 51962  53.0523 223.0694 0001466  95.2075 264.9082 15.08026456 82563,6920.368,95.489,543.248,541.219,0.0
51962.0,STARLINK-3697,PAYLOAD,2023-08-27 09:00:21,15.08030388,0.0001521,53.0525,221.8751,102.7855,257.3304,2.3819e-08,-2.86e-06,0.0,0 STARLINK-3697,1 51962U 22025G   23239.37524571 -.00000286  00000-0  23819-7 0  9994,2 51962  53.0525 221.8751 0001521 102.7855 257.3304 15.08030388 81490,6920.356,95.489,543.274,541.169,0.0
51962.0,STARLINK-3697,PAYLOAD,2023-08-28 07:16:27,15.0803108,0.0001494,53.053,217.699,96.8722,263.2437,2.6164e-05,1.21e-06,0.0,0 STARLINK-3697,1 51962U 22025G   23240.30309559  .00000121  00000-0  26164-4 0  9996,2 51962  53.0530 217.6990 0001494  96.8722 263.2437 15.08031080 82741,6920.354,95.489,543.253,541.185,0.0
51962.0,STARLINK-3697,PAYLOAD,2023-08-28 15:13:38,15.08025731,0.0001435,53.0527,216.2071,97.5629,262.5524,6.1016e-05,6.64e-06,0.0,0 STARLINK-3697,1 51962U 22025G   23240.63447304  .00000664  00000-0  61016-4 0  9990,2 51962  53.0527 216.2071 0001435  97.5629 262.5524 15.08025731 81688,6920.37,95.489,543.228,541.242,0.0
51962.0,STARLINK-3697,PAYLOAD,2023-08-29 07:08:00,15.08028318,0.000146,53.053,213.225,95.2417,264.874,6.6705e-05,7.53e-06,0.0,0 STARLINK-3697,1 51962U 22025G   23241.29722325  .00000753  00000-0  66705-4 0  9991,2 51962  53.0530 213.2250 0001460  95.2417 264.8740 15.08028318 81786,6920.362,95.489,543.238,541.217,0.0
51962.0,STARLINK-3697,PAYLOAD,2023-08-30 02:13:14,15.08029378,0.0001415,53.053,209.6458,95.2728,264.8423,2.7046e-05,1.35e-06,0.0,0 STARLINK-3697,1 51962U 22025G   23242.09252555  .00000135  00000-0  27046-4 0  9992,2 51962  53.0530 209.6458 0001415  95.2728 264.8423 15.08029378 83013,6920.359,95.489,543.203,541.245,0.0
51962.0,STARLINK-3697,PAYLOAD,2023-08-30 14:56:43,15.08030347,0.0001383,53.0528,207.2565,85.3747,274.7401,1.9541e-05,1.8e-07,0.0,0 STARLINK-3697,1 51962U 22025G   23242.62272469  .00000018  00000-0  19541-4 0  9998,2 51962  53.0528 207.2565 0001383  85.3747 274.7401 15.08030347 81986,6920.356,95.489,543.178,541.264,0.0
51962.0,STARLINK-3697,PAYLOAD,2023-08-31 03:40:13,15.08023618,9.76e-05,53.0529,204.874,97.4399,262.6701,1.7296e-05,-1.7e-07,0.0,0 STARLINK-3697,1 51962U 22025G   23243.15292867 -.00000017  00000-0  17296-4 0  9996,2 51962  53.0529 204.8740 0000976  97.4399 262.6701 15.08023618 83174,6920.377,95.489,542.917,541.566,0.0
51962.0,STARLINK-3697,PAYLOAD,2023-08-31 06:51:04,15.08035772,0.0001405,53.0528,204.2761,90.937,269.1781,7.5933e-05,8.97e-06,0.0,0 STARLINK-3697,1 51962U 22025G   23243.28546953  .00000897  00000-0  75933-4 0  9995,2 51962  53.0528 204.2761 0001405  90.9370 269.1781 15.08035772 83191,6920.34,95.488,543.177,541.232,0.0
51962.0,STARLINK-3697,PAYLOAD,2023-08-31 21:10:00,15.08027923,0.0001656,53.0539,201.5934,87.9527,272.1652,1.7855e-05,-8e-08,0.0,0 STARLINK-3697,1 51962U 22025G   23243.88195209 -.00000008  00000-0  17855-4 0  9999,2 51962  53.0539 201.5934 0001656  87.9527 272.1652 15.08027923 82170,6920.364,95.489,543.375,541.083,0.0
51962.0,STARLINK-3697,PAYLOAD,2023-09-01 03:31:45,15.08028304,0.0001689,53.0537,200.4004,88.3662,271.7521,1.9018e-05,1e-07,0.0,0 STARLINK-3697,1 51962U 22025G   23244.14705151  .00000010  00000-0  19018-4 0  9997,2 51962  53.0537 200.4004 0001689  88.3662 271.7521 15.08028304 83327,6920.363,95.489,543.396,541.059,0.0
51962.0,STARLINK-3697,PAYLOAD,2023-09-01 21:01:31,15.08040521,6.36e-05,53.0518,197.1193,91.0492,269.0571,3.0622e-05,1.91e-06,0.0,0 STARLINK-3697,1 51962U 22025G   23244.87606389  .00000191  00000-0  30622-4 0  9994,2 51962  53.0518 197.1193 0000636  91.0492 269.0571 15.08040521 83432,6920.325,95.488,542.63,541.75,0.0
51962.0,STARLINK-3697,PAYLOAD,2023-09-02 03:23:16,15.08041146,0.0001391,53.0535,195.9238,93.2508,266.8641,0.000131,1.755e-05,0.0,0 STARLINK-3697,1 51962U 22025G   23245.14116250  .00001755  00000-0  13100-3 0  9996,2 51962  53.0535 195.9238 0001391  93.2508 266.8641 15.08041146 82366,6920.323,95.488,543.151,541.226,0.0
51962.0,STARLINK-3697,PAYLOAD,2023-09-02 20:53:05,15.08031876,5.7e-05,53.0569,192.6443,62.6826,297.4221,2.1884e-05,5.5e-07,0.0,0 STARLINK-3697,1 51962U 22025G   23245.87019682  .00000055  00000-0  21884-4 0  9998,2 51962  53.0569 192.6443 0000570  62.6826 297.4221 15.08031876 82471,6920.352,95.489,542.611,541.822,0.0
51962.0,STARLINK-3697,PAYLOAD,2023-09-03 03:14:49,15.08032803,0.0001193,53.0524,191.448,93.5192,266.5934,4.6487e-05,4.38e-06,0.0,0 STARLINK-3697,1 51962U 22025G   23246.13529457  .00000438  00000-0  46487-4 0  9995,2 51962  53.0524 191.4480 0001193  93.5192 266.5934 15.08032803 82515,6920.349,95.489,543.039,541.388,0.0
51962.0,STARLINK-3697,PAYLOAD,2023-09-04 01:30:56,15.08023913,0.0001214,53.0533,187.2754,91.7717,268.3412,-8.914e-05,-1.673e-05,0.0,0 STARLINK-3697,1 51962U 22025G   23247.06315629 -.00001673  00000-0 -89140-4 0  9999,2 51962  53.0533 187.2754 0001214  91.7717 268.3412 15.08023913 83760,6920.376,95.489,543.081,541.401,0.0
51962.0,STARLINK-3697,PAYLOAD,2023-09-04 12:38:59,15.08022406,8.45e-05,53.0533,185.1859,80.6435,279.465,1.036e-05,-1.24e-06,0.0,0 STARLINK-3697,1 51962U 22025G   23247.52708050 -.00000124  00000-0  10360-4 0  9991,2 51962  53.0533 185.1859 0000845  80.6435 279.4650 15.08022406 82724,6920.381,95.489,542.83,541.661,0.0
51962.0,STARLINK-3697,PAYLOAD,2023-09-05 02:57:54,15.0803005,9.69e-05,53.0528,182.5016,89.9759,270.1342,6.2489e-05,6.87e-06,0.0,0 STARLINK-3697,1 51962U 22025G   23248.12355083  .00000687  00000-0  62489-4 0  9994,2 51962  53.0528 182.5016 0000969  89.9759 270.1342 15.08030050 83925,6920.357,95.489,542.893,541.552,0.0
51962.0,STARLINK-3697,PAYLOAD,2023-09-05 06:08:46,15.08035181,0.0001208,53.0535,181.9046,97.4293,262.6834,9.3112e-05,1.164e-05,0.0,0 STARLINK-3697,1 51962U 22025G   23248.25609696  .00001164  00000-0  93112-4 0  9998,2 51962  53.0535 181.9046 0001208  97.4293 262.6834 15.08035181 82834,6920.341,95.488,543.042,541.371,0.0
51962.0,STARLINK-3697,PAYLOAD,2023-09-06 01:14:01,15.08024979,0.0001091,53.0534,178.3252,87.211,272.9004,7.1801e-05,8.32e-06,0.0,0 STARLINK-3697,1 51962U 22025G   23249.05140621  .00000832  00000-0  71801-4 0  9997,2 51962  53.0534 178.3252 0001091  87.2110 272.9004 15.08024979 84060,6920.373,95.489,542.993,541.483,0.0
51962.0,STARLINK-3697,PAYLOAD,2023-09-06 18:43:48,15.08030397,0.0001195,53.0536,175.0442,84.207,275.9056,0.00010467,1.344e-05,0.0,0 STARLINK-3697,1 51962U 22025G   23249.78042806  .00001344  00000-0  10467-3 0  9992,2 51962  53.0536 175.0442 0001195  84.2070 275.9056 15.08030397 83064,6920.356,95.489,543.048,541.394,0.0
51962.0,STARLINK-3697,PAYLOAD,2023-09-07 01:05:33,15.0801918,0.0001108,53.0536,173.8514,87.4851,272.6266,0.00029234,4.267e-05,0.0,0 STARLINK-3697,1 51962U 22025G   23250.04553098  .00004267  00000-0  29234-3 0  9992,2 51962  53.0536 173.8514 0001108  87.4851 272.6266 15.08019180 83105,6920.39,95.49,543.022,541.489,0.0
51962.0,STARLINK-3697,PAYLOAD,2023-09-07 18:35:21,15.08030516,0.0001426,53.0538,170.5703,91.3041,268.8112,3.7437e-05,2.97e-06,0.0,0 STARLINK-3697,1 51962U 22025G   23250.77455243  .00000297  00000-0  37437-4 0  9999,2 51962  53.0538 170.5703 0001426  91.3041 268.8112 15.08030516 84327,6920.356,95.489,543.208,541.234,0.0
51962.0,STARLINK-3697,PAYLOAD,2023-09-08 00:57:05,15.08036411,0.0001864,53.0547,169.3767,105.2684,254.8512,7.1171e-05,8.22e-06,0.0,0 STARLINK-3697,1 51962U 22025G   23251.03964698  .00000822  00000-0  71171-4 0  9995,2 51962  53.0547 169.3767 0001864 105.2684 254.8512 15.08036411 84360,6920.338,95.488,543.493,540.913,0.0
51962.0,STARLINK-3697,PAYLOAD,2023-09-09 00:48:38,15.08032907,0.0001423,53.0544,164.9046,89.9379,270.1774,5.8793e-05,6.3e-06,0.0,0 STARLINK-3697,1 51962U 22025G   23252.03377373  .00000630  00000-0  58793-4 0  9996,2 51962  53.0544 164.9046 0001423  89.9379 270.1774 15.08032907 84512,6920.348,95.489,543.198,541.229,0.0
51962.0,STARLINK-3697,PAYLOAD,2023-09-10 03:51:02,15.08038604,0.0001458,53.0539,159.8327,100.4624,259.653,8.5282e-05,1.042e-05,0.0,0 STARLINK-3697,1 51962U 22025G   23253.16044225  .00001042  00000-0  85282-4 0  9999,2 51962  53.0539 159.8327 0001458 100.4624 259.6530 15.08038604 84681,6920.331,95.488,543.205,541.187,0.0
51962.0,STARLINK-3697,PAYLOAD,2023-09-10 18:09:58,15.08025014,0.0001498,53.054,157.1487,96.2163,263.8997,-8.2065e-06,-4.14e-06,0.0,0 STARLINK-3697,1 51962U 22025G   23253.75693106 -.00000414  00000-0 -82065-5 0  9993,2 51962  53.0540 157.1487 0001498  96.2163 263.8997 15.08025014 84770,6920.373,95.489,543.274,541.201,0.0
51962.0,STARLINK-3697,PAYLOAD,2023-09-11 10:04:20,15.08028251,0.0001515,53.054,154.1665,95.5,264.6162,2.1296e-05,4.6e-07,0.0,0 STARLINK-3697,1 51962U 22025G   23254.41967999  .00000046  00000-0  21296-4 0  9998,2 51962  53.0540 154.1665 0001515  95.5000 264.6162 15.08028251 83764,6920.363,95.489,543.276,541.179,0.0
51962.0,STARLINK-3697,PAYLOAD,2023-09-12 00:23:14,15.08039855,0.0001347,53.0541,151.4824,94.4543,265.66,0.00010557,1.358e-05,0.0,0 STARLINK-3697,1 51962U 22025G   23255.01614545  .00001358  00000-0  10557-3 0  9995,2 51962  53.0541 151.4824 0001347  94.4543 265.6600 15.08039855 84968,6920.327,95.488,543.124,541.26,0.0
51962.0,STARLINK-3697,PAYLOAD,2023-09-12 03:34:06,15.08046463,0.0001435,53.0541,150.8846,93.7737,266.3417,0.00016238,2.244e-05,0.0,0 STARLINK-3697,1 51962U 22025G   23255.14868957  .00002244  00000-0  16238-3 0  9994,2 51962  53.0541 150.8846 0001435  93.7737 266.3417 15.08046463 84989,6920.307,95.488,543.165,541.179,0.0
